[{"OBJECT_NAME":"YAOGAN-43 01D","OBJECT_ID":"2024-148D","EPOCH":"2026-03-09T10:27:16.254720","MEAN_MOTION":15.28369377,"ECCENTRICITY":0.00025569,"INCLINATION":35.001,"RA_OF_ASC_NODE":61.7102,"ARG_OF_PERICENTER":326.2473,"MEAN_ANOMALY":33.808,"EPHEMERIS_TYPE":0,"CLASSIFICATION_TYPE":"U","NORAD_CAT_ID":60461,"ELEMENT_SET_NO":999,"REV_AT_EPOCH":8700,"BSTAR":0.00037765912,"MEAN_MOTION_DOT":0.00010676,"MEAN_MOTION_DDOT":0},{"OBJECT_NAME":"STARLINK-33976","OBJECT_ID":"2025-093Y","EPOCH":"2026-03-09T10:29:17.983680","MEAN_MOTION":15.27624713,"ECCENTRICITY":0.00041869,"INCLINATION":43.0078,"RA_OF_ASC_NODE":79.2845,"ARG_OF_PERICENTER":284.0658,"MEAN_ANOMALY":75.9728,"EPHEMERIS_TYPE":0,"CLASSIFICATION_TYPE":"U","NORAD_CAT_ID":63858,"ELEMENT_SET_NO":999,"REV_AT_EPOCH":4777,"BSTAR":0.0012395216,"MEAN_MOTION_DOT":0.00034057,"MEAN_MOTION_DDOT":0}]
